OBJECT_NAME,OBJECT_ID,EPOCH,MEAN_MOTION,ECCENTRICITY,INCLINATION,RA_OF_ASC_NODE,ARG_OF_PERICENTER,MEAN_ANOMALY,EPHEMERIS_TYPE,CLASSIFICATION_TYPE,NORAD_CAT_ID,ELEMENT_SET_NO,REV_AT_EPOCH,BSTAR,MEAN_MOTION_DOT,MEAN_MOTION_DDOT
FENGYUN 3D,2017-072A,2026-07-22T22:45:47.473632,14.19744409,.00010464,99.0155,179.0213,358.8244,1.2929,0,U,43010,999,45006,-.13257599E-3,-.327E-5,0
NOAA 20 (JPSS-1),2017-073A,2026-07-22T21:05:30.528384,14.19517617,.0001644,98.7772,143.0254,115.9335,244.2011,0,U,43013,999,44953,.42509645E-4,.45E-6,0
GOES 17,2018-022A,2026-07-22T21:09:44.414784,1.00271965,.00007,1.0261,85.1534,56.8779,26.5257,0,U,43226,999,3078,0,-.179E-5,0
SENTINEL-3B,2018-039A,2026-07-22T16:12:35.716032,14.26737900,.00012991,98.6229,270.6951,118.4511,241.6800,0,U,43437,999,42918,.44504417E-4,.64E-6,0
FENGYUN 2H,2018-050A,2026-07-22T21:57:47.831616,1.00267294,.00020483,3.1211,78.6563,124.5777,145.8798,0,U,43491,999,2979,0,-.124E-5,0
METOP-C,2018-087A,2026-07-22T21:29:05.587584,14.21504331,.00020748,98.6623,262.8423,83.8678,276.2736,0,U,43689,999,39990,.49306573E-4,.65E-6,0
GEO-KOMPSAT-2A,2018-100A,2026-07-22T22:11:46.492224,1.00268710,.00025806,0.0214,78.1066,21.7736,301.9984,0,U,43823,999,2798,0,0,0
METEOR-M2 2,2019-038A,2026-07-22T22:18:38.177856,14.24374482,.00001939,98.9174,191.7465,346.0818,14.0354,0,U,44387,999,36638,.58318192E-4,.89E-6,0
ARKTIKA-M 1,2021-016A,2026-07-17T21:31:16.955328,2.00610215,.72985164,63.2571,53.1467,270.0868,14.5016,0,U,47719,999,3940,0,-.295E-5,0
FENGYUN 3E,2021-062A,2026-07-22T23:58:21.552384,14.19906308,.0001833,98.7513,207.0090,26.2066,333.9203,0,U,49008,999,26166,-.6695298E-5,-.58E-6,0
GOES 18,2022-021A,2026-07-22T17:30:52.689600,1.00271982,.00004839,0.0046,120.3838,28.4761,277.3187,0,U,51850,999,694,0,.101E-5,0
NOAA 21 (JPSS-2),2022-150A,2026-07-22T20:10:20.435520,14.19541988,.00029145,98.7059,142.0310,90.9390,269.2120,0,U,54234,999,19160,.31471442E-4,.23E-6,0
METEOSAT-12 (MTG-I1),2022-170C,2026-07-22T22:18:49.930848,1.00270034,.00041596,0.7327,21.0008,81.0689,172.9063,0,U,54743,999,1333,0,-.5E-7,0
TIANMU-1 03,2023-039A,2026-07-22T22:21:29.403648,15.48212013,.00019406,97.5251,19.3294,356.0708,4.0526,0,U,55973,999,18636,.32694542E-3,.17131E-3,0
TIANMU-1 04,2023-039B,2026-07-22T21:45:54.082944,15.48843467,.00022632,97.5190,18.4609,341.6628,18.4540,0,U,55974,999,18637,.33638057E-3,.18024E-3,0
TIANMU-1 05,2023-039C,2026-07-22T21:56:19.004640,15.48133451,.00023277,97.5233,18.9133,26.7741,333.3628,0,U,55975,999,18634,.31959353E-3,.16698E-3,0
TIANMU-1 06,2023-039D,2026-07-22T21:54:06.751296,15.48737416,.00023287,97.5241,19.5839,15.1363,344.9956,0,U,55976,999,18637,.3277452E-3,.17492E-3,0
FENGYUN 3G,2023-055A,2026-07-22T22:28:27.461280,15.54061298,.0006816,49.9912,161.6096,93.1017,267.0730,0,U,56232,999,18556,.41376084E-3,.27002E-3,0
METEOR-M2 3,2023-091A,2026-07-22T22:22:22.198368,14.24049323,.00050522,98.6063,258.1751,73.0449,287.1284,0,U,57166,999,15960,.9743698E-5,-.21E-6,0
TIANMU-1 07,2023-101A,2026-07-22T22:33:51.323040,15.30180958,.00031564,97.2576,253.7918,48.6129,311.5383,0,U,57399,999,16711,.2414072E-3,.6976E-4,0
TIANMU-1 08,2023-101B,2026-07-22T21:45:41.200704,15.30183425,.00038274,97.2566,253.5246,24.8596,335.2829,0,U,57400,999,16710,.22990295E-3,.6641E-4,0
TIANMU-1 09,2023-101C,2026-07-22T22:54:43.584768,15.30227481,.00037542,97.2524,252.9691,46.5859,313.5694,0,U,57401,999,16711,.25213656E-3,.7301E-4,0
TIANMU-1 10,2023-101D,2026-07-22T22:09:02.867904,15.30200554,.00049233,97.2603,254.0252,32.4686,327.6857,0,U,57402,999,16710,.23702713E-3,.6854E-4,0
FENGYUN 3F,2023-111A,2026-07-22T21:52:28.726176,14.19944297,.00011234,98.6820,273.2515,74.9337,285.1964,0,U,57490,999,15393,.24754938E-4,.9E-7,0
ARKTIKA-M 2,2023-198A,2026-07-21T03:45:39.718944,2.00607150,.69126494,63.2169,150.5623,267.3229,18.7284,0,U,58584,999,1900,0,.142E-5,0
TIANMU-1 11,2023-205A,2026-07-22T23:02:24.826848,15.27320301,.0007244,97.3450,224.9621,227.8359,132.2265,0,U,58645,999,14298,.22116555E-3,.5848E-4,0
TIANMU-1 12,2023-205B,2026-07-22T16:07:03.245376,15.27003015,.00064874,97.3438,224.4213,209.2071,150.8807,0,U,58646,999,14292,.15785076E-3,.4112E-4,0
TIANMU-1 13,2023-205C,2026-07-22T21:37:45.197184,15.27145642,.00066905,97.3466,224.9308,182.9948,177.1252,0,U,58647,999,14295,.22170116E-3,.5831E-4,0
TIANMU-1 14,2023-205D,2026-07-22T22:49:18.888384,15.27190565,.00073053,97.3403,224.1335,189.6893,170.4207,0,U,58648,999,14296,.23820066E-3,.628E-4,0
TIANMU-1 19,2023-208A,2026-07-22T22:53:05.485344,15.32064748,.00053505,97.4524,320.4541,171.0158,189.1180,0,U,58660,999,14280,.30899512E-3,.9493E-4,0
